{"fetched_at":"2026-07-14T06:34:27.310Z","source":"https://celestrak.org/NORAD/elements/gp.php?GROUP=spire&FORMAT=JSON","constellation":"spire","records":[{"OBJECT_NAME":"LEMUR-2-VALHALLA","OBJECT_ID":"2024-022B","EPOCH":"2026-07-13T12:28:09.545952","CLASSIFICATION_TYPE":"U","MEAN_MOTION":15.40455427,"ECCENTRICITY":0.00093676,"INCLINATION":97.4077,"RA_OF_ASC_NODE":44.8395,"ARG_OF_PERICENTER":29.8669,"MEAN_ANOMALY":330.311,"EPHEMERIS_TYPE":0,"NORAD_CAT_ID":58900,"ELEMENT_SET_NO":999,"REV_AT_EPOCH":13632,"BSTAR":0.00024466141,"MEAN_MOTION_DOT":0.00009838,"MEAN_MOTION_DDOT":0},{"OBJECT_NAME":"LEMUR-2-CAEL","OBJECT_ID":"2024-022E","EPOCH":"2026-07-13T19:56:50.837280","CLASSIFICATION_TYPE":"U","MEAN_MOTION":15.41825836,"ECCENTRICITY":0.0007278,"INCLINATION":97.4061,"RA_OF_ASC_NODE":46.1387,"ARG_OF_PERICENTER":14.486,"MEAN_ANOMALY":345.6595,"EPHEMERIS_TYPE":0,"NORAD_CAT_ID":58903,"ELEMENT_SET_NO":999,"REV_AT_EPOCH":13644,"BSTAR":0.0002513,"MEAN_MOTION_DOT":0.00010574,"MEAN_MOTION_DDOT":0},{"OBJECT_NAME":"LEMUR-2-JOHNNYTRUONG","OBJECT_ID":"2024-043BA","EPOCH":"2026-07-13T10:11:36.440448","CLASSIFICATION_TYPE":"U","MEAN_MOTION":15.62464736,"ECCENTRICITY":0.00041836,"INCLINATION":97.5381,"RA_OF_ASC_NODE":347.7948,"ARG_OF_PERICENTER":98.9068,"MEAN_ANOMALY":261.2663,"EPHEMERIS_TYPE":0,"NORAD_CAT_ID":59146,"ELEMENT_SET_NO":999,"REV_AT_EPOCH":13213,"BSTAR":0.00031008954,"MEAN_MOTION_DOT":0.0002747,"MEAN_MOTION_DDOT":0},{"OBJECT_NAME":"LEMUR-2-TOMATOKECHUP","OBJECT_ID":"2024-149D","EPOCH":"2026-07-13T16:21:48.601728","CLASSIFICATION_TYPE":"U","MEAN_MOTION":15.36562806,"ECCENTRICITY":0.0003248,"INCLINATION":97.3803,"RA_OF_ASC_NODE":276.8043,"ARG_OF_PERICENTER":125.4451,"MEAN_ANOMALY":234.7097,"EPHEMERIS_TYPE":0,"NORAD_CAT_ID":60471,"ELEMENT_SET_NO":999,"REV_AT_EPOCH":10623,"BSTAR":0.00017875,"MEAN_MOTION_DOT":0.00006298,"MEAN_MOTION_DDOT":0},{"OBJECT_NAME":"LEMUR-2-STELLA","OBJECT_ID":"2024-149BT","EPOCH":"2026-07-13T18:00:40.784256","CLASSIFICATION_TYPE":"U","MEAN_MOTION":15.12354035,"ECCENTRICITY":0.0001265,"INCLINATION":97.674,"RA_OF_ASC_NODE":277.3306,"ARG_OF_PERICENTER":112.4511,"MEAN_ANOMALY":247.6853,"EPHEMERIS_TYPE":0,"NORAD_CAT_ID":60533,"ELEMENT_SET_NO":999,"REV_AT_EPOCH":10451,"BSTAR":0.00034165,"MEAN_MOTION_DOT":0.00005858,"MEAN_MOTION_DDOT":0},{"OBJECT_NAME":"LEMUR-2-MARHISYAM","OBJECT_ID":"2024-149BW","EPOCH":"2026-07-13T00:18:19.714752","CLASSIFICATION_TYPE":"U","MEAN_MOTION":15.11754239,"ECCENTRICITY":0.00027158,"INCLINATION":97.6885,"RA_OF_ASC_NODE":277.0636,"ARG_OF_PERICENTER":73.2664,"MEAN_ANOMALY":286.8864,"EPHEMERIS_TYPE":0,"NORAD_CAT_ID":60536,"ELEMENT_SET_NO":999,"REV_AT_EPOCH":10438,"BSTAR":0.00039418223,"MEAN_MOTION_DOT":0.00006657,"MEAN_MOTION_DDOT":0},{"OBJECT_NAME":"LEMUR-2-AHMED-ASRAR","OBJECT_ID":"2024-149DN","EPOCH":"2026-07-13T17:58:15.646080","CLASSIFICATION_TYPE":"U","MEAN_MOTION":15.13287813,"ECCENTRICITY":0.0001052,"INCLINATION":97.701,"RA_OF_ASC_NODE":280.0012,"ARG_OF_PERICENTER":204.3434,"MEAN_ANOMALY":155.7747,"EPHEMERIS_TYPE":0,"NORAD_CAT_ID":60576,"ELEMENT_SET_NO":999,"REV_AT_EPOCH":10458,"BSTAR":0.00033468,"MEAN_MOTION_DOT":0.00005889,"MEAN_MOTION_DDOT":0},{"OBJECT_NAME":"LEMUR-2-LLOYD","OBJECT_ID":"2024-149DP","EPOCH":"2026-07-13T18:09:46.471968","CLASSIFICATION_TYPE":"U","MEAN_MOTION":15.09735298,"ECCENTRICITY":0.0004833,"INCLINATION":97.6752,"RA_OF_ASC_NODE":275.907,"ARG_OF_PERICENTER":76.4339,"MEAN_ANOMALY":283.7428,"EPHEMERIS_TYPE":0,"NORAD_CAT_ID":60577,"ELEMENT_SET_NO":999,"REV_AT_EPOCH":10440,"BSTAR":0.00035356,"MEAN_MOTION_DOT":0.0000564,"MEAN_MOTION_DDOT":0},{"OBJECT_NAME":"LEMUR-2-SQUIRRELCOMM","OBJECT_ID":"2024-149DQ","EPOCH":"2026-07-13T17:50:12.842016","CLASSIFICATION_TYPE":"U","MEAN_MOTION":15.0743914,"ECCENTRICITY":0.0004166,"INCLINATION":97.6716,"RA_OF_ASC_NODE":275.5747,"ARG_OF_PERICENTER":335.2598,"MEAN_ANOMALY":24.8429,"EPHEMERIS_TYPE":0,"NORAD_CAT_ID":60578,"ELEMENT_SET_NO":999,"REV_AT_EPOCH":10440,"BSTAR":0.00018811,"MEAN_MOTION_DOT":0.00002787,"MEAN_MOTION_DDOT":0},{"OBJECT_NAME":"LEMUR-2-SIERRINI","OBJECT_ID":"2024-149DR","EPOCH":"2026-07-13T18:28:00.714144","CLASSIFICATION_TYPE":"U","MEAN_MOTION":15.11494484,"ECCENTRICITY":0.000646,"INCLINATION":97.6848,"RA_OF_ASC_NODE":277.4875,"ARG_OF_PERICENTER":94.0938,"MEAN_ANOMALY":266.103,"EPHEMERIS_TYPE":0,"NORAD_CAT_ID":60579,"ELEMENT_SET_NO":999,"REV_AT_EPOCH":10447,"BSTAR":0.00039108,"MEAN_MOTION_DOT":0.00006559,"MEAN_MOTION_DDOT":0},{"OBJECT_NAME":"LEMUR-2-WILSON","OBJECT_ID":"2025-009CP","EPOCH":"2026-07-13T19:07:01.810272","CLASSIFICATION_TYPE":"U","MEAN_MOTION":14.95274261,"ECCENTRICITY":0.0002139,"INCLINATION":97.7022,"RA_OF_ASC_NODE":272.7948,"ARG_OF_PERICENTER":332.8734,"MEAN_ANOMALY":27.2375,"EPHEMERIS_TYPE":0,"NORAD_CAT_ID":62694,"ELEMENT_SET_NO":999,"REV_AT_EPOCH":8133,"BSTAR":0.000067977,"MEAN_MOTION_DOT":0.00000692,"MEAN_MOTION_DDOT":0},{"OBJECT_NAME":"LEMUR-2-STAR-FOX","OBJECT_ID":"2025-009CR","EPOCH":"2026-07-13T19:05:05.859744","CLASSIFICATION_TYPE":"U","MEAN_MOTION":15.02830871,"ECCENTRICITY":0.0002388,"INCLINATION":97.6914,"RA_OF_ASC_NODE":276.2131,"ARG_OF_PERICENTER":48.7282,"MEAN_ANOMALY":311.4148,"EPHEMERIS_TYPE":0,"NORAD_CAT_ID":62696,"ELEMENT_SET_NO":999,"REV_AT_EPOCH":8155,"BSTAR":0.00026618,"MEAN_MOTION_DOT":0.00003505,"MEAN_MOTION_DDOT":0},{"OBJECT_NAME":"LEMUR-2-ARIANNA","OBJECT_ID":"2025-009CU","EPOCH":"2026-07-13T19:02:53.494944","CLASSIFICATION_TYPE":"U","MEAN_MOTION":15.02832026,"ECCENTRICITY":0.0002672,"INCLINATION":97.6854,"RA_OF_ASC_NODE":275.9647,"ARG_OF_PERICENTER":55.9087,"MEAN_ANOMALY":304.2391,"EPHEMERIS_TYPE":0,"NORAD_CAT_ID":62699,"ELEMENT_SET_NO":999,"REV_AT_EPOCH":8155,"BSTAR":0.00028002,"MEAN_MOTION_DOT":0.0000369,"MEAN_MOTION_DDOT":0},{"OBJECT_NAME":"LEMUR-2-ALISIA","OBJECT_ID":"2025-009DB","EPOCH":"2026-07-13T18:23:32.676288","CLASSIFICATION_TYPE":"U","MEAN_MOTION":15.03162407,"ECCENTRICITY":0.0004103,"INCLINATION":97.6973,"RA_OF_ASC_NODE":276.7599,"ARG_OF_PERICENTER":132.9962,"MEAN_ANOMALY":227.1608,"EPHEMERIS_TYPE":0,"NORAD_CAT_ID":62706,"ELEMENT_SET_NO":999,"REV_AT_EPOCH":10415,"BSTAR":0.00034521,"MEAN_MOTION_DOT":0.00004605,"MEAN_MOTION_DDOT":0},{"OBJECT_NAME":"LEMUR-2-ROUNDTRIPPER","OBJECT_ID":"2025-009DG","EPOCH":"2026-07-13T18:32:27.777408","CLASSIFICATION_TYPE":"U","MEAN_MOTION":15.04217795,"ECCENTRICITY":0.0004411,"INCLINATION":97.7253,"RA_OF_ASC_NODE":277.4183,"ARG_OF_PERICENTER":66.7555,"MEAN_ANOMALY":293.4134,"EPHEMERIS_TYPE":0,"NORAD_CAT_ID":62711,"ELEMENT_SET_NO":999,"REV_AT_EPOCH":8162,"BSTAR":0.000375,"MEAN_MOTION_DOT":0.00005151,"MEAN_MOTION_DDOT":0},{"OBJECT_NAME":"LEMUR-2-MYNAMEISJEFF","OBJECT_ID":"2025-009DH","EPOCH":"2026-07-13T18:30:16.312896","CLASSIFICATION_TYPE":"U","MEAN_MOTION":15.0420899,"ECCENTRICITY":0.0003962,"INCLINATION":97.7302,"RA_OF_ASC_NODE":277.814,"ARG_OF_PERICENTER":100.2655,"MEAN_ANOMALY":259.9017,"EPHEMERIS_TYPE":0,"NORAD_CAT_ID":62712,"ELEMENT_SET_NO":999,"REV_AT_EPOCH":8162,"BSTAR":0.00036287,"MEAN_MOTION_DOT":0.00004981,"MEAN_MOTION_DDOT":0}]}
